NORAD_CAT_ID,OBJECT_NAME,OBJECT_TYPE,EPOCH,MEAN_MOTION,ECCENTRICITY,INCLINATION,RA_OF_ASC_NODE,ARG_OF_PERICENTER,MEAN_ANOMALY,BSTAR,MEAN_MOTION_DOT,MEAN_MOTION_DDOT,TLE_LINE0,TLE_LINE1,TLE_LINE2,SEMIMAJOR_AXIS,PERIOD,APOGEE,PERIGEE,DECAYED
52677.0,STARLINK-4028,PAYLOAD,2023-01-28 17:47:16,15.08840283,0.0001202,53.2171,203.5863,84.6115,275.5014,6.8699e-05,8.06e-06,0.0,0 STARLINK-4028,1 52677U 22053X   23028.74115778  .00000806  00000-0  68699-4 0  9990,2 52677  53.2171 203.5863 0001202  84.6115 275.5014 15.08840283 39257,6917.88,95.438,540.576,538.913,0.0
52677.0,STARLINK-4028,PAYLOAD,2023-01-29 11:16:32,15.08826664,7.66e-05,53.2172,200.3152,90.77,269.338,-1.9404e-05,-5.96e-06,0.0,0 STARLINK-4028,1 52677U 22053X   23029.46981737 -.00000596  00000-0 -19404-4 0  9994,2 52677  53.2172 200.3152 0000766  90.7700 269.3380 15.08826664 39362,6917.921,95.438,540.316,539.256,0.0
52677.0,STARLINK-4028,PAYLOAD,2023-01-29 17:38:04,15.08835798,0.0001206,53.2177,199.1267,84.9035,275.2095,5.1858e-05,5.37e-06,0.0,0 STARLINK-4028,1 52677U 22053X   23029.73477247  .00000537  00000-0  51858-4 0  9992,2 52677  53.2177 199.1267 0001206  84.9035 275.2095 15.08835798 39407,6917.893,95.438,540.593,538.924,0.0
52677.0,STARLINK-4028,PAYLOAD,2023-01-30 11:07:18,15.08844769,0.0001147,53.2168,195.8543,89.551,270.5613,0.00010791,1.43e-05,0.0,0 STARLINK-4028,1 52677U 22053X   23030.46340592  .00001430  00000-0  10791-3 0  9999,2 52677  53.2168 195.8543 0001147  89.5510 270.5613 15.08844769 39514,6917.866,95.437,540.524,538.937,0.0
52677.0,STARLINK-4028,PAYLOAD,2023-01-30 20:39:37,15.08825592,0.0001021,53.2169,194.0709,31.2576,328.8476,0.00054099,8.329e-05,0.0,0 STARLINK-4028,1 52677U 22053X   23030.86084847  .00008329  00000-0  54099-3 0  9994,2 52677  53.2169 194.0709 0001021  31.2576 328.8476 15.08825592 39985,6917.924,95.438,540.496,539.083,0.0
52677.0,STARLINK-4028,PAYLOAD,2023-01-31 10:58:05,15.08847838,0.0001233,53.2157,191.3917,106.1659,253.9469,9.8991e-05,1.288e-05,0.0,0 STARLINK-4028,1 52677U 22053X   23031.45700479  .00001288  00000-0  98991-4 0  9993,2 52677  53.2157 191.3917 0001233 106.1659 253.9469 15.08847838 39664,6917.856,95.437,540.574,538.868,0.0
52677.0,STARLINK-4028,PAYLOAD,2023-01-31 20:30:23,15.0884914,0.0001153,53.2154,189.6103,72.6298,287.482,9.5543e-05,1.233e-05,0.0,0 STARLINK-4028,1 52677U 22053X   23031.85444247  .00001233  00000-0  95543-4 0  9995,2 52677  53.2154 189.6103 0001153  72.6298 287.4820 15.08849140 40130,6917.852,95.437,540.515,538.92,0.0
52677.0,STARLINK-4028,PAYLOAD,2023-02-01 10:48:52,15.08846964,0.0001314,53.2158,186.9327,99.747,260.3671,-6.5811e-05,-1.335e-05,0.0,0 STARLINK-4028,1 52677U 22053X   23032.45060480 -.00001335  00000-0 -65811-4 0  9995,2 52677  53.2158 186.9327 0001314  99.7470 260.3671 15.08846964 39811,6917.859,95.437,540.633,538.815,0.0
52677.0,STARLINK-4028,PAYLOAD,2023-02-02 10:39:39,15.08838667,0.0001204,53.2167,182.4739,93.7394,266.3736,-6.9099e-05,-1.387e-05,0.0,0 STARLINK-4028,1 52677U 22053X   23033.44420600 -.00001387  00000-0 -69099-4 0  9998,2 52677  53.2167 182.4739 0001204  93.7394 266.3736 15.08838667 40378,6917.884,95.438,540.582,538.917,0.0
52677.0,STARLINK-4028,PAYLOAD,2023-02-02 20:11:57,15.08841937,0.0001084,53.2177,180.6894,90.0565,270.0551,-5.1923e-05,-1.114e-05,0.0,0 STARLINK-4028,1 52677U 22053X   23033.84164285 -.00001114  00000-0 -51923-4 0  9991,2 52677  53.2177 180.6894 0001084  90.0565 270.0551 15.08841937 40020,6917.874,95.437,540.489,538.99,0.0
52677.0,STARLINK-4028,PAYLOAD,2023-02-03 10:30:26,15.08832415,0.0001202,53.2153,178.0122,97.8673,262.2456,-2.9736e-05,-7.61e-06,0.0,0 STARLINK-4028,1 52677U 22053X   23034.43780997 -.00000761  00000-0 -29736-4 0  9995,2 52677  53.2153 178.0122 0001202  97.8673 262.2456 15.08832415 40114,6917.904,95.438,540.6,538.937,0.0
52677.0,STARLINK-4028,PAYLOAD,2023-02-03 18:27:22,15.08837991,0.0001129,53.2161,176.5256,90.295,269.8172,4.3092e-05,3.98e-06,0.0,0 STARLINK-4028,1 52677U 22053X   23034.76900552  .00000398  00000-0  43092-4 0  9997,2 52677  53.2161 176.5256 0001129  90.2950 269.8172 15.08837991 40164,6917.887,95.438,540.533,538.971,0.0
52677.0,STARLINK-4028,PAYLOAD,2023-02-04 13:31:59,15.08841041,0.0001148,53.2168,172.9577,92.1639,267.9484,0.00014635,2.042e-05,0.0,0 STARLINK-4028,1 52677U 22053X   23035.56388126  .00002042  00000-0  14635-3 0  9991,2 52677  53.2168 172.9577 0001148  92.1639 267.9484 15.08841041 40697,6917.877,95.437,540.536,538.948,0.0
52677.0,STARLINK-4028,PAYLOAD,2023-02-04 18:18:08,15.08851024,0.0001133,53.2177,172.066,91.6227,268.4895,0.00013943,1.933e-05,0.0,0 STARLINK-4028,1 52677U 22053X   23035.76259465  .00001933  00000-0  13943-3 0  9995,2 52677  53.2177 172.0660 0001133  91.6227 268.4895 15.08851024 40315,6917.847,95.437,540.495,538.928,0.0
52677.0,STARLINK-4028,PAYLOAD,2023-02-05 02:15:05,15.08834349,0.0001486,53.2175,170.5792,86.7868,273.3294,7.1577e-05,8.51e-06,0.0,0 STARLINK-4028,1 52677U 22053X   23036.09380824  .00000851  00000-0  71577-4 0  9992,2 52677  53.2175 170.5792 0001486  86.7868 273.3294 15.08834349 40363,6917.898,95.438,540.791,538.735,0.0
52677.0,STARLINK-4028,PAYLOAD,2023-02-05 13:22:47,15.08834405,0.0001471,53.2171,168.4981,88.1211,271.9949,6.7914e-05,7.93e-06,0.0,0 STARLINK-4028,1 52677U 22053X   23036.55749022  .00000793  00000-0  67914-4 0  9997,2 52677  53.2171 168.4981 0001471  88.1211 271.9949 15.08834405 40844,6917.897,95.438,540.78,538.745,0.0
52677.0,STARLINK-4028,PAYLOAD,2023-02-05 18:08:56,15.08839616,0.000128,53.2169,167.6053,91.6696,268.4443,3.351e-05,2.45e-06,0.0,0 STARLINK-4028,1 52677U 22053X   23036.75620762  .00000245  00000-0  33510-4 0  9995,2 52677  53.2169 167.6053 0001280  91.6696 268.4443 15.08839616 40878,6917.882,95.438,540.632,538.861,0.0
52677.0,STARLINK-4028,PAYLOAD,2023-02-06 11:38:10,15.08844057,0.0001188,53.2165,164.3346,94.1884,265.9244,6.6701e-05,7.74e-06,0.0,0 STARLINK-4028,1 52677U 22053X   23037.48484415  .00000774  00000-0  66701-4 0  9994,2 52677  53.2165 164.3346 0001188  94.1884 265.9244 15.08844057 40570,6917.868,95.437,540.555,538.911,0.0
52677.0,STARLINK-4028,PAYLOAD,2023-02-06 13:13:33,15.08847354,0.0001262,53.2182,164.0389,90.2836,269.8301,9.7754e-05,1.269e-05,0.0,0 STARLINK-4028,1 52677U 22053X   23037.55108191  .00001269  00000-0  97754-4 0  9998,2 52677  53.2182 164.0389 0001262  90.2836 269.8301 15.08847354 40996,6917.858,95.437,540.596,538.85,0.0
52677.0,STARLINK-4028,PAYLOAD,2023-02-06 17:59:42,15.08856778,0.0001269,53.2165,163.1441,99.2906,260.823,0.00011781,1.588e-05,0.0,0 STARLINK-4028,1 52677U 22053X   23037.74979390  .00001588  00000-0  11781-3 0  9995,2 52677  53.2165 163.1441 0001269  99.2906 260.8230 15.08856778 40611,6917.829,95.436,540.572,538.816,0.0
52677.0,STARLINK-4028,PAYLOAD,2023-02-07 11:28:57,15.0884537,0.0001765,53.2159,159.8735,109.1812,250.9371,0.00015957,2.253e-05,0.0,0 STARLINK-4028,1 52677U 22053X   23038.47843837  .00002253  00000-0  15957-3 0  9991,2 52677  53.2159 159.8735 0001765 109.1812 250.9371 15.08845370 40724,6917.864,95.437,540.95,538.508,0.0
52677.0,STARLINK-4028,PAYLOAD,2023-02-07 13:04:20,15.08844632,0.0001642,53.2173,159.5747,118.9381,241.1776,0.00021702,3.168e-05,0.0,0 STARLINK-4028,1 52677U 22053X   23038.54467702  .00003168  00000-0  21702-3 0  9993,2 52677  53.2173 159.5747 0001642 118.9381 241.1776 15.08844632 41141,6917.866,95.437,540.867,538.595,0.0
52677.0,STARLINK-4028,PAYLOAD,2023-02-07 14:39:42,15.08854101,0.0001524,53.2173,159.279,108.4577,251.6581,0.00017741,2.538e-05,0.0,0 STARLINK-4028,1 52677U 22053X   23038.61091245  .00002538  00000-0  17741-3 0  9994,2 52677  53.2173 159.2790 0001524 108.4577 251.6581 15.08854101 40743,6917.837,95.437,540.757,538.648,0.0
52677.0,STARLINK-4028,PAYLOAD,2023-02-08 11:19:44,15.08840703,0.0001363,53.2166,155.412,119.7991,240.3137,-4.1156e-05,-9.43e-06,0.0,0 STARLINK-4028,1 52677U 22053X   23039.47204124 -.00000943  00000-0 -41156-4 0  9999,2 52677  53.2166 155.4120 0001363 119.7991 240.3137 15.08840703 40875,6917.878,95.438,540.686,538.8,0.0
52677.0,STARLINK-4028,PAYLOAD,2023-02-08 12:55:07,15.08843679,0.000143,53.217,155.1151,119.6239,240.4895,8.205e-06,-1.57e-06,0.0,0 STARLINK-4028,1 52677U 22053X   23039.53827988 -.00000157  00000-0  82050-5 0  9990,2 52677  53.2170 155.1151 0001430 119.6239 240.4895 15.08843679 41294,6917.869,95.437,540.723,538.745,0.0
52677.0,STARLINK-4028,PAYLOAD,2023-02-09 11:10:31,15.08842624,0.0001473,53.2187,150.9558,119.5742,240.5397,2.9475e-06,-2.41e-06,0.0,0 STARLINK-4028,1 52677U 22053X   23040.46564292 -.00000241  00000-0  29475-5 0  9996,2 52677  53.2187 150.9558 0001473 119.5742 240.5397 15.08842624 41434,6917.872,95.437,540.756,538.718,0.0
52677.0,STARLINK-4028,PAYLOAD,2023-02-09 14:21:17,15.08851495,0.0001396,53.2179,150.3586,126.5464,233.5657,9.962e-05,1.298e-05,0.0,0 STARLINK-4028,1 52677U 22053X   23040.59811473  .00001298  00000-0  99620-4 0  9996,2 52677  53.2179 150.3586 0001396 126.5464 233.5657 15.08851495 41047,6917.845,95.437,540.676,538.745,0.0
52677.0,STARLINK-4028,PAYLOAD,2023-02-09 23:53:36,15.08844248,0.0001198,53.2184,148.5763,84.3023,275.8106,6.0452e-05,6.74e-06,0.0,0 STARLINK-4028,1 52677U 22053X   23040.99556077  .00000674  00000-0  60452-4 0  9994,2 52677  53.2184 148.5763 0001198  84.3023 275.8106 15.08844248 41104,6917.867,95.437,540.561,538.904,0.0
52677.0,STARLINK-4028,PAYLOAD,2023-02-10 11:01:19,15.08823226,8.77e-05,53.2182,146.4974,105.4122,254.6967,-0.00010092,-1.893e-05,0.0,0 STARLINK-4028,1 52677U 22053X   23041.45925530 -.00001893  00000-0 -10092-3 0  9990,2 52677  53.2182 146.4974 0000877 105.4122 254.6967 15.08823226 41171,6917.932,95.439,540.403,539.19,0.0
52677.0,STARLINK-4028,PAYLOAD,2023-02-10 14:12:06,15.08820132,6.3e-05,53.2172,145.9024,105.1225,254.9837,-0.00013157,-2.38e-05,0.0,0 STARLINK-4028,1 52677U 22053X   23041.59173869 -.00002380  00000-0 -13157-3 0  9992,2 52677  53.2172 145.9024 0000630 105.1225 254.9837 15.08820132 41608,6917.941,95.439,540.242,539.37,0.0
